STAR ONE D2             
1 49055U 21069A   26161.53997559  .00000000  00000+0  00000+0 0  9997
2 49055   0.0139 348.7558 0002001 118.3258 276.1001  1.00267877 17877
EUTELSAT QUANTUM        
1 49056U 21069B   26162.91777399  .00000142  00000+0  00000+0 0  9996
2 49056   0.0151  20.2763 0002140  61.0886 196.9927  1.00270267 17870
ZHONGXING-2E            
1 49062U 21071A   26162.95091637 -.00000275  00000+0  00000+0 0  9992
2 49062   0.0394 237.4236 0001710 250.8474 212.4223  1.00271928 17986
TJS-7                   
1 49115U 21077A   26162.95994035 -.00000108  00000+0  00000+0 0  9996
2 49115   0.4940  86.1745 0002163 335.2900  84.9408  1.00270274  9504
CHINASAT 9B             
1 49125U 21080A   26162.93057347 -.00000296  00000+0  00000+0 0  9993
2 49125   0.0412  96.6124 0001430  12.5948 227.4979  1.00271140 17593
SHIJIAN-21 (SJ-21)      
1 49330U 21094A   26162.99059312 -.00000335  00000+0  00000+0 0  9990
2 49330   5.1001  61.2098 0049787 168.1695 155.5969  1.00273319  5309
SES-17                  
1 49332U 21095A   26162.40030971 -.00000256  00000+0  00000+0 0  9991
2 49332   0.0244  33.3374 0001055  68.7337 234.6984  1.00275202 17790
SYRACUSE 4A             
1 49333U 21095B   26162.91734065  .00000151  00000+0  00000+0 0  9996
2 49333   0.0170 332.8364 0001590 124.0756 179.0984  1.00270816 17899
QZS-1R (MICHIBIKI-1R)   
1 49336U 21096A   26162.64809291 -.00000250  00000+0  00000+0 0  9995
2 49336  37.4503  79.6669 0754440 271.6776 276.3022  1.00257351 16959
ZHONGXING-1D            
1 49505U 21114A   26162.93415406 -.00000320  00000+0  00000+0 0  9995
2 49505   0.0321 238.8981 0000490 336.2590 151.6131  1.00271790 16766
STPSAT-6                
1 49817U 21118A   26162.67237351 -.00000030  00000+0  00000+0 0  9995
2 49817   0.3059  85.4535 0001427 249.2134  55.7350  1.00272992 16517
EXPRESS AMU-7           
1 50001U 21123A   26162.93710074 -.00000226  00000+0  00000+0 0  9992
2 50001   0.0143 291.4569 0000294  29.7377  61.4466  1.00271781 16485
EXPRESS AMU-3           
1 50002U 21123B   26161.99352330 -.00000304  00000+0  00000+0 0  9992
2 50002   0.0172 309.9759 0000324  43.2552   6.7802  1.00272897  6972
TIANLIAN 2-02           
1 50005U 21124A   26162.87087708  .00000002  00000+0  00000+0 0  9992
2 50005   0.7864  86.2319 0001224 204.6123  93.8611  1.00271743 16564
TURKSAT 5B              
1 50212U 21126A   26162.91664731  .00000162  00000+0  00000+0 0  9993
2 50212   0.0675 341.4905 0003437  13.6436 277.1158  1.00271011 16243
INMARSAT 6-F1           
1 50319U 21128A   26162.71106312 -.00000155  00000+0  00000+0 0  9990
2 50319   0.0171 314.9399 0000337 244.6061  40.2457  1.00270504 16203
SHIYAN-12 01 (SY-12 01) 
1 50321U 21129A   26162.71071374  .00000066  00000+0  00000+0 0  9993
2 50321   3.6596  79.9821 0003293 285.6552 214.9548  1.00038281 16449
SHIYAN-12 02 (SY-12 02) 
1 50322U 21129B   26162.71082051 -.00000211  00000+0  00000+0 0  9991
2 50322   3.6592  79.9883 0002693  59.3531 101.2052  1.00490692 16446
TJS-9                   
1 50574U 21135A   26162.93554074 -.00000283  00000+0  00000+0 0  9999
2 50574   0.0496 253.4596 0004451 156.0521 324.7603  1.00269986 16373
USA 324                 
1 51280U 22006A   26157.08795008 -.00000058  00000+0  00000+0 0  9996
2 51280   0.7690  83.2777 0002840 165.6787 110.1567  1.00289779 16021
GOES 18                 
1 51850U 22021A   26162.66734682  .00000113  00000+0  00000+0 0  9998
2 51850   0.0332 125.7729 0000460  29.3228 208.1548  1.00271607  6534
ZHONGXING-6D            
1 52255U 22038A   26162.92976123 -.00000338  00000+0  00000+0 0  9993
2 52255   0.0247 272.2896 0000193 200.3900 247.3333  1.00268046 15364
NILESAT 301             
1 52817U 22061A   26162.69308692 -.00000040  00000+0  00000+0 0  9997
2 52817   0.0457 351.7910 0005273  53.6570  97.1154  1.00278760 14687
CMS-02 (GSAT-24)        
1 52903U 22067A   26162.64611869 -.00000148  00000+0  00000+0 0  9996
2 52903   0.0422 121.5858 0001544 248.1891 205.8179  1.00271141 14550
MEASAT 3D               
1 52904U 22067B   26162.91483572 -.00000225  00000+0  00000+0 0  9991
2 52904   0.0378 315.7315 0000574 103.9991 261.3452  1.00269094 14596
SES-22                  
1 52933U 22071A   26162.66691348  .00000121  00000+0  00000+0 0  9996
2 52933   0.0161 302.1794 0001356 127.2488 291.6796  1.00268998  7465
WFOV (USA 332)          
1 52940U 22073A   26162.78940747 -.00000348  00000+0  00000+0 0  9991
2 52940   3.6963  78.5949 0002156 238.4889 346.4843  1.00269487 14315
TIANLIAN 2-03           
1 53100U 22078A   26162.91041499  .00000088  00000+0  00000+0 0  9996
2 53100   0.6587  76.9300 0001570 324.1590 197.4956  1.00271548 14496
SBIRS GEO-6 (USA 336)   
1 53355U 22092A   26162.93588741 -.00000276  00000+0  00000+0 0  9992
2 53355   3.2673 317.3977 0001785 119.9390 298.8697  1.00270729 14185
EUTELSAT KONNECT VHTS   
1 53765U 22110A   26160.62755586  .00000034  00000+0  00000+0 0  9996
2 53765   0.0647 103.4177 0002603 320.1706  63.0435  1.00269352  6766
ZHONGXING-1E            
1 53813U 22112A   26162.49675206 -.00000132  00000+0  00000+0 0  9999
2 53813   0.0524 102.4235 0000241 193.9869 223.6538  1.00269691 13795
