OBJECT_NAME,OBJECT_ID,EPOCH,MEAN_MOTION,ECCENTRICITY,INCLINATION,RA_OF_ASC_NODE,ARG_OF_PERICENTER,MEAN_ANOMALY,EPHEMERIS_TYPE,CLASSIFICATION_TYPE,NORAD_CAT_ID,ELEMENT_SET_NO,REV_AT_EPOCH,BSTAR,MEAN_MOTION_DOT,MEAN_MOTION_DDOT
STAR ONE D2,2021-069A,2026-06-10T12:57:33.890976,1.00267877,.00020013,0.0139,348.7558,118.3258,276.1001,0,U,49055,999,1787,0,0,0
EUTELSAT QUANTUM,2021-069B,2026-06-11T22:01:35.672736,1.00270267,.00021402,0.0151,20.2763,61.0886,196.9927,0,U,49056,999,1787,0,.142E-5,0
ZHONGXING-2E,2021-071A,2026-06-11T22:49:19.174368,1.00271928,.00017106,0.0394,237.4236,250.8474,212.4223,0,U,49062,999,1798,0,-.275E-5,0
TJS-7,2021-077A,2026-06-11T23:02:18.846240,1.00270274,.0002163,0.4940,86.1745,335.2900,84.9408,0,U,49115,999,950,0,-.108E-5,0
CHINASAT 9B,2021-080A,2026-06-11T22:20:01.547808,1.00271140,.00014307,0.0412,96.6124,12.5948,227.4979,0,U,49125,999,1759,0,-.296E-5,0
SHIJIAN-21 (SJ-21),2021-094A,2026-06-11T23:46:27.245568,1.00273319,.00497875,5.1001,61.2098,168.1695,155.5969,0,U,49330,999,530,0,-.335E-5,0
SES-17,2021-095A,2026-06-11T09:36:26.758944,1.00275202,.00010559,0.0244,33.3374,68.7337,234.6984,0,U,49332,999,1779,0,-.256E-5,0
SYRACUSE 4A,2021-095B,2026-06-11T22:00:58.232160,1.00270816,.00015909,0.0170,332.8364,124.0756,179.0984,0,U,49333,999,1789,0,.151E-5,0
QZS-1R (MICHIBIKI-1R),2021-096A,2026-06-11T15:33:15.227424,1.00257351,.07544403,37.4503,79.6669,271.6776,276.3022,0,U,49336,999,1695,0,-.25E-5,0
ZHONGXING-1D,2021-114A,2026-06-11T22:25:10.910784,1.00271790,.00004904,0.0321,238.8981,336.2590,151.6131,0,U,49505,999,1676,0,-.32E-5,0
STPSAT-6,2021-118A,2026-06-11T16:08:13.071264,1.00272992,.00014272,0.3059,85.4535,249.2134,55.7350,0,U,49817,999,1651,0,-.3E-6,0
EXPRESS AMU-7,2021-123A,2026-06-11T22:29:25.503936,1.00271781,.00002941,0.0143,291.4569,29.7377,61.4466,0,U,50001,999,1648,0,-.226E-5,0
EXPRESS AMU-3,2021-123B,2026-06-10T23:50:40.413120,1.00272897,.00003248,0.0172,309.9759,43.2552,6.7802,0,U,50002,999,697,0,-.304E-5,0
TIANLIAN 2-02,2021-124A,2026-06-11T20:54:03.779712,1.00271743,.00012249,0.7864,86.2319,204.6123,93.8611,0,U,50005,999,1656,0,.2E-7,0
TURKSAT 5B,2021-126A,2026-06-11T21:59:58.327584,1.00271011,.00034379,0.0675,341.4905,13.6436,277.1158,0,U,50212,999,1624,0,.162E-5,0
INMARSAT 6-F1,2021-128A,2026-06-11T17:03:55.853568,1.00270504,.00003378,0.0171,314.9399,244.6061,40.2457,0,U,50319,999,1620,0,-.155E-5,0
SHIYAN-12 01 (SY-12 01),2021-129A,2026-06-11T17:03:25.667136,1.00038281,.0003293,3.6596,79.9821,285.6552,214.9548,0,U,50321,999,1644,0,.66E-6,0
SHIYAN-12 02 (SY-12 02),2021-129B,2026-06-11T17:03:34.892064,1.00490692,.0002693,3.6592,79.9883,59.3531,101.2052,0,U,50322,999,1644,0,-.211E-5,0
TJS-9,2021-135A,2026-06-11T22:27:10.719936,1.00269986,.00044517,0.0496,253.4596,156.0521,324.7603,0,U,50574,999,1637,0,-.283E-5,0
USA 324,2022-006A,2026-06-06T02:06:38.886912,1.00289779,.000284,0.7690,83.2777,165.6787,110.1567,0,U,51280,999,1602,0,-.58E-6,0
GOES 18,2022-021A,2026-06-11T16:00:58.765248,1.00271607,.000046,0.0332,125.7729,29.3228,208.1548,0,U,51850,999,653,0,.113E-5,0
ZHONGXING-6D,2022-038A,2026-06-11T22:18:51.370272,1.00268046,.00001934,0.0247,272.2896,200.3900,247.3333,0,U,52255,999,1536,0,-.338E-5,0
NILESAT 301,2022-061A,2026-06-11T16:38:02.709888,1.00278760,.00052732,0.0457,351.7910,53.6570,97.1154,0,U,52817,999,1468,0,-.4E-6,0
CMS-02 (GSAT-24),2022-067A,2026-06-11T15:30:24.654816,1.00271141,.00015448,0.0422,121.5858,248.1891,205.8179,0,U,52903,999,1455,0,-.148E-5,0
MEASAT 3D,2022-067B,2026-06-11T21:57:21.806208,1.00269094,.00005744,0.0378,315.7315,103.9991,261.3452,0,U,52904,999,1459,0,-.225E-5,0
SES-22,2022-071A,2026-06-11T16:00:21.324672,1.00268998,.00013565,0.0161,302.1794,127.2488,291.6796,0,U,52933,999,746,0,.121E-5,0
WFOV (USA 332),2022-073A,2026-06-11T18:56:44.805408,1.00269487,.00021569,3.6963,78.5949,238.4889,346.4843,0,U,52940,999,1431,0,-.348E-5,0
TIANLIAN 2-03,2022-078A,2026-06-11T21:50:59.855136,1.00271548,.00015705,0.6587,76.9300,324.1590,197.4956,0,U,53100,999,1449,0,.88E-6,0
SBIRS GEO-6 (USA 336),2022-092A,2026-06-11T22:27:40.672224,1.00270729,.00017851,3.2673,317.3977,119.9390,298.8697,0,U,53355,999,1418,0,-.276E-5,0
EUTELSAT KONNECT VHTS,2022-110A,2026-06-09T15:03:40.826304,1.00269352,.00026035,0.0647,103.4177,320.1706,63.0435,0,U,53765,999,676,0,.34E-6,0
ZHONGXING-1E,2022-112A,2026-06-11T11:55:19.377984,1.00269691,.0000241,0.0524,102.4235,193.9869,223.6538,0,U,53813,999,1379,0,-.132E-5,0
